CCSDS_OMM_VERS,COMMENT,CREATION_DATE,ORIGINATOR,OBJECT_NAME,OBJECT_ID,CENTER_NAME,REF_FRAME,TIME_SYSTEM,MEAN_ELEMENT_THEORY,EPOCH,MEAN_MOTION,ECCENTRICITY,INCLINATION,RA_OF_ASC_NODE,ARG_OF_PERICENTER,MEAN_ANOMALY,EPHEMERIS_TYPE,CLASSIFICATION_TYPE,NORAD_CAT_ID,ELEMENT_SET_NO,REV_AT_EPOCH,BSTAR,MEAN_MOTION_DOT,MEAN_MOTION_DDOT,SEMIMAJOR_AXIS,PERIOD,APOAPSIS,PERIAPSIS,OBJECT_TYPE,RCS_SIZE,COUNTRY_CODE,LAUNCH_DATE,SITE,DECAY_DATE,FILE,GP_ID,TLE_LINE0,TLE_LINE1,TLE_LINE2
2,GENERATED VIA SPACE-TRACK.ORG API,2023-03-05T09:26:12,18 SPCS,STARLINK-1098,2020-001D,EARTH,TEME,UTC,SGP4,2023-03-05T05:21:54.540288,15.06402632,0.0001483,53.0543,246.8035,69.5609,290.5539,0,U,44917,999,17398,-9.9394e-05,-1.762e-05,0,6925.34,95.592,548.233,546.178,PAYLOAD,LARGE,US,2020-01-07,AFETR,,3851552,227517307,0 STARLINK-1098,1 44917U 20001D   23064.22354792 -.00001762  00000-0 -99394-4 0  9993,2 44917  53.0543 246.8035 0001483  69.5609 290.5539 15.06402632173986
2,GENERATED VIA SPACE-TRACK.ORG API,2023-03-05T20:32:20,18 SPCS,STARLINK-1098,2020-001D,EARTH,TEME,UTC,SGP4,2023-03-05T11:44:04.112736,15.06399242,0.0001521,53.0543,245.6122,71.1135,289.0019,0,U,44917,999,17402,-0.00010477,-1.842e-05,0,6925.351,95.592,548.269,546.163,PAYLOAD,LARGE,US,2020-01-07,AFETR,,3851939,227545497,0 STARLINK-1098,1 44917U 20001D   23064.48893649 -.00001842  00000-0 -10477-3 0  9993,2 44917  53.0543 245.6122 0001521  71.1135 289.0019 15.06399242174020
2,GENERATED VIA SPACE-TRACK.ORG API,2023-03-06T02:27:07,18 SPCS,STARLINK-1098,2020-001D,EARTH,TEME,UTC,SGP4,2023-03-05T19:41:45.812832,15.06404517,0.0001462,53.0545,244.123,66.9421,293.1722,0,U,44917,999,17407,-7.9162e-06,-3.99e-06,0,6925.335,95.592,548.212,546.187,PAYLOAD,LARGE,US,2020-01-07,AFETR,,3852256,227579417,0 STARLINK-1098,1 44917U 20001D   23064.82066913 -.00000399  00000-0 -79162-5 0  9991,2 44917  53.0545 244.1230 0001462  66.9421 293.1722 15.06404517174074
2,GENERATED VIA SPACE-TRACK.ORG API,2023-03-06T14:56:13,18 SPCS,STARLINK-1098,2020-001D,EARTH,TEME,UTC,SGP4,2023-03-06T11:37:09.812640,15.06397771,0.0001475,53.0541,241.1448,71.0303,289.0846,0,U,44917,999,17417,0.00015635,2.048e-05,0,6925.355,95.592,548.242,546.199,PAYLOAD,LARGE,US,2020-01-07,AFETR,,3852781,227596503,0 STARLINK-1098,1 44917U 20001D   23065.48414135  .00002048  00000-0  15635-3 0  9991,2 44917  53.0541 241.1448 0001475  71.0303 289.0846 15.06397771174173
2,GENERATED VIA SPACE-TRACK.ORG API,2023-03-06T22:56:12,18 SPCS,STARLINK-1098,2020-001D,EARTH,TEME,UTC,SGP4,2023-03-06T17:59:17.740032,15.06426958,0.0001309,53.054,239.9539,70.737,289.3761,0,U,44917,999,17421,-0.00061643,-9.458e-05,0,6925.266,95.59,548.037,546.224,PAYLOAD,LARGE,US,2020-01-07,AFETR,,3853049,227602923,0 STARLINK-1098,1 44917U 20001D   23065.74951088 -.00009458  00000-0 -61643-3 0  9997,2 44917  53.0540 239.9539 0001309  70.7370 289.3761 15.06426958174218
2,GENERATED VIA SPACE-TRACK.ORG API,2023-03-07T03:16:41,18 SPCS,STARLINK-1098,2020-001D,EARTH,TEME,UTC,SGP4,2023-03-06T21:10:23.478816,15.06408294,0.0001504,53.0535,239.358,68.7814,291.3335,0,U,44917,999,17423,6.9965e-05,7.61e-06,0,6925.323,95.592,548.23,546.147,PAYLOAD,LARGE,US,2020-01-07,AFETR,,3853141,227623810,0 STARLINK-1098,1 44917U 20001D   23065.88221619  .00000761  00000-0  69965-4 0  9994,2 44917  53.0535 239.3580 0001504  68.7814 291.3335 15.06408294174234
2,GENERATED VIA SPACE-TRACK.ORG API,2023-03-07T08:36:13,18 SPCS,STARLINK-1098,2020-001D,EARTH,TEME,UTC,SGP4,2023-03-07T05:08:05.931456,15.06395473,0.0001739,53.0529,237.868,78.8523,281.2662,0,U,44917,999,17428,3.0097e-05,1.67e-06,0,6925.362,95.592,548.432,546.023,PAYLOAD,LARGE,US,2020-01-07,AFETR,,3853436,227637562,0 STARLINK-1098,1 44917U 20001D   23066.21395754  .00000167  00000-0  30097-4 0  9998,2 44917  53.0529 237.8680 0001739  78.8523 281.2662 15.06395473174280
2,GENERATED VIA SPACE-TRACK.ORG API,2023-03-08T02:32:52,18 SPCS,STARLINK-1098,2020-001D,EARTH,TEME,UTC,SGP4,2023-03-07T21:03:29.143296,15.0640644,0.0001358,53.0528,234.8886,81.9245,278.1898,0,U,44917,999,17438,0.00018335,2.451e-05,0,6925.329,95.592,548.134,546.253,PAYLOAD,LARGE,US,2020-01-07,AFETR,,3854072,227670614,0 STARLINK-1098,1 44917U 20001D   23066.87742064  .00002451  00000-0  18335-3 0  9998,2 44917  53.0528 234.8886 0001358  81.9245 278.1898 15.06406440174381
2,GENERATED VIA SPACE-TRACK.ORG API,2023-03-08T07:26:12,18 SPCS,STARLINK-1098,2020-001D,EARTH,TEME,UTC,SGP4,2023-03-07T21:03:29.143296,15.0640644,0.0001358,53.0528,234.8886,81.9245,278.1898,0,U,44917,999,17438,0.00018335,2.451e-05,0,6925.329,95.592,548.134,546.253,PAYLOAD,LARGE,US,2020-01-07,AFETR,,3854287,227683537,0 STARLINK-1098,1 44917U 20001D   23066.87742064  .00002451  00000-0  18335-3 0  9998,2 44917  53.0528 234.8886 0001358  81.9245 278.1898 15.06406440174381
2,GENERATED VIA SPACE-TRACK.ORG API,2023-03-08T17:16:12,18 SPCS,STARLINK-1098,2020-001D,EARTH,TEME,UTC,SGP4,2023-03-08T11:23:20.996448,15.06392696,0.0001344,53.0533,232.2072,98.6697,261.4444,0,U,44917,999,17447,-6.6478e-05,-1.271e-05,0,6925.371,95.593,548.167,546.305,PAYLOAD,LARGE,US,2020-01-07,AFETR,,3854628,227690549,0 STARLINK-1098,1 44917U 20001D   23067.47454857 -.00001271  00000-0 -66478-4 0  9998,2 44917  53.0533 232.2072 0001344  98.6697 261.4444 15.06392696174476
2,GENERATED VIA SPACE-TRACK.ORG API,2023-03-09T02:49:33,18 SPCS,STARLINK-1098,2020-001D,EARTH,TEME,UTC,SGP4,2023-03-08T20:56:35.212992,15.06400345,0.0001473,53.0524,230.4207,94.9459,265.1698,0,U,44917,999,17453,0.00019191,2.578e-05,0,6925.348,95.592,548.233,546.192,PAYLOAD,LARGE,US,2020-01-07,AFETR,,3855077,227719622,0 STARLINK-1098,1 44917U 20001D   23067.87262978  .00002578  00000-0  19191-3 0  9991,2 44917  53.0524 230.4207 0001473  94.9459 265.1698 15.06400345174534
2,GENERATED VIA SPACE-TRACK.ORG API,2023-03-10T03:15:38,18 SPCS,STARLINK-1098,2020-001D,EARTH,TEME,UTC,SGP4,2023-03-09T17:38:35.662272,15.06410328,9.86e-05,53.0537,226.5483,79.9974,280.1126,0,U,44917,999,17466,0.00041352,5.885e-05,0,6925.317,95.591,547.865,546.499,PAYLOAD,LARGE,US,2020-01-07,AFETR,,3855951,227765107,0 STARLINK-1098,1 44917U 20001D   23068.73513498  .00005885  00000-0  41352-3 0  9991,2 44917  53.0537 226.5483 0000986  79.9974 280.1126 15.06410328174662
2,GENERATED VIA SPACE-TRACK.ORG API,2023-03-09T23:16:13,18 SPCS,STARLINK-1098,2020-001D,EARTH,TEME,UTC,SGP4,2023-03-09T17:38:35.662272,15.06410328,9.86e-05,53.0537,226.5483,79.9974,280.1126,0,U,44917,999,17466,0.00041352,5.885e-05,0,6925.317,95.591,547.865,546.499,PAYLOAD,LARGE,US,2020-01-07,AFETR,,3855823,227743585,0 STARLINK-1098,1 44917U 20001D   23068.73513498  .00005885  00000-0  41352-3 0  9991,2 44917  53.0537 226.5483 0000986  79.9974 280.1126 15.06410328174662
2,GENERATED VIA SPACE-TRACK.ORG API,2023-03-11T02:42:24,18 SPCS,STARLINK-1098,2020-001D,EARTH,TEME,UTC,SGP4,2023-03-10T09:33:59.797728,15.06398482,0.0001279,53.0527,223.5701,89.6836,270.4299,0,U,44917,999,17476,0.00018489,2.473e-05,0,6925.353,95.592,548.104,546.332,PAYLOAD,LARGE,US,2020-01-07,AFETR,,3856975,227814039,0 STARLINK-1098,1 44917U 20001D   23069.39860877  .00002473  00000-0  18489-3 0  9995,2 44917  53.0527 223.5701 0001279  89.6836 270.4299 15.06398482174762
2,GENERATED VIA SPACE-TRACK.ORG API,2023-03-10T15:16:13,18 SPCS,STARLINK-1098,2020-001D,EARTH,TEME,UTC,SGP4,2023-03-10T09:33:59.797728,15.06398482,0.0001279,53.0527,223.5701,89.6836,270.4299,0,U,44917,999,17476,0.00018489,2.473e-05,0,6925.353,95.592,548.104,546.332,PAYLOAD,LARGE,US,2020-01-07,AFETR,,3856544,227784984,0 STARLINK-1098,1 44917U 20001D   23069.39860877  .00002473  00000-0  18489-3 0  9995,2 44917  53.0527 223.5701 0001279  89.6836 270.4299 15.06398482174762
2,GENERATED VIA SPACE-TRACK.ORG API,2023-03-11T17:53:52,18 SPCS,STARLINK-1098,2020-001D,EARTH,TEME,UTC,SGP4,2023-03-11T11:02:37.833504,15.06399038,0.000121,53.0545,218.805,80.6396,279.473,0,U,44917,999,17492,0.00013789,1.773e-05,0,6925.352,95.592,548.054,546.379,PAYLOAD,LARGE,US,2020-01-07,AFETR,,3857581,227853071,0 STARLINK-1098,1 44917U 20001D   23070.46016011  .00001773  00000-0  13789-3 0  9998,2 44917  53.0545 218.8050 0001210  80.6396 279.4730 15.06399038174928
2,GENERATED VIA SPACE-TRACK.ORG API,2023-03-11T15:06:12,18 SPCS,STARLINK-1098,2020-001D,EARTH,TEME,UTC,SGP4,2023-03-11T11:02:37.833504,15.06399038,0.000121,53.0545,218.805,80.6396,279.473,0,U,44917,999,17492,0.00013789,1.773e-05,0,6925.352,95.592,548.054,546.379,PAYLOAD,LARGE,US,2020-01-07,AFETR,,3857532,227832179,0 STARLINK-1098,1 44917U 20001D   23070.46016011  .00001773  00000-0  13789-3 0  9998,2 44917  53.0545 218.8050 0001210  80.6396 279.4730 15.06399038174928
2,GENERATED VIA SPACE-TRACK.ORG API,2023-03-12T03:55:32,18 SPCS,STARLINK-1098,2020-001D,EARTH,TEME,UTC,SGP4,2023-03-11T19:00:19.425600,15.06406219,0.000123,53.0548,217.3158,79.1255,280.9873,0,U,44917,999,17497,0.00025929,3.583e-05,0,6925.329,95.592,548.046,546.343,PAYLOAD,LARGE,US,2020-01-07,AFETR,,3857847,227886381,0 STARLINK-1098,1 44917U 20001D   23070.79189150  .00003583  00000-0  25929-3 0  9999,2 44917  53.0548 217.3158 0001230  79.1255 280.9873 15.06406219174973
2,GENERATED VIA SPACE-TRACK.ORG API,2023-03-12T18:31:26,18 SPCS,STARLINK-1098,2020-001D,EARTH,TEME,UTC,SGP4,2023-03-12T12:31:15.572928,15.06404884,0.0001168,53.0532,214.04,70.2166,289.8948,0,U,44917,999,17508,0.00025005,3.446e-05,0,6925.334,95.592,548.007,546.39,PAYLOAD,LARGE,US,2020-01-07,AFETR,,3858534,227928798,0 STARLINK-1098,1 44917U 20001D   23071.52170802  .00003446  00000-0  25005-3 0  9998,2 44917  53.0532 214.0400 0001168  70.2166 289.8948 15.06404884175083
2,GENERATED VIA SPACE-TRACK.ORG API,2023-03-12T16:36:14,18 SPCS,STARLINK-1098,2020-001D,EARTH,TEME,UTC,SGP4,2023-03-12T12:31:15.572928,15.06404884,0.0001168,53.0532,214.04,70.2166,289.8948,0,U,44917,999,17508,0.00025005,3.446e-05,0,6925.334,95.592,548.007,546.39,PAYLOAD,LARGE,US,2020-01-07,AFETR,,3858459,227907061,0 STARLINK-1098,1 44917U 20001D   23071.52170802  .00003446  00000-0  25005-3 0  9998,2 44917  53.0532 214.0400 0001168  70.2166 289.8948 15.06404884175083
